ONEWEB-0533             
1 55141U 23004B   24015.48821570  .00000480  00000+0  12987-2 0  9992
2 55141  87.9026 166.4356 0001359 103.0851 257.0429 13.12442160 52142
ONEWEB-0541             
1 55142U 23004C   24014.90406065 -.00000396  00000+0 -11539-2 0  9997
2 55142  87.8961 196.8055 0001308  89.8071 270.3207 13.11414726 50047
ONEWEB-0543             
1 55143U 23004D   24014.89949450  .00000009  00000+0 -10630-4 0  9999
2 55143  87.9224 151.5120 0001938 113.5335 246.6001 13.18685410 53159
ONEWEB-0544             
1 55144U 23004E   24014.89316575  .00000015  00000+0  59385-5 0  9993
2 55144  87.9216 151.4957 0001595  95.6944 264.4370 13.18689195 53154
ONEWEB-0560             
1 55145U 23004F   24014.88683628  .00000005  00000+0 -20607-4 0  9993
2 55145  87.9239 151.4395 0001998 102.7098 257.4258 13.18690659 53168
ONEWEB-0565             
1 55146U 23004G   24014.88051403  .00000026  00000+0  32148-4 0  9999
2 55146  87.9231 151.5253 0001661  70.7932 289.3380 13.18688376 53155
ONEWEB-0567             
1 55147U 23004H   24014.87422352 -.00000052  00000+0 -16362-3 0  9994
2 55147  87.9229 151.4795 0002145  92.8196 267.3181 13.18688610 53154
ONEWEB-0569             
1 55148U 23004J   24015.58335648  .00000014  00000+0  00000+0 0  9999
2 55148  87.9016 136.0879 0003803  74.3548  92.7735 13.50608305 54143
